ONEWEB-0116             
1 48046U 21025E   25359.51788631  .00000399  00000+0  10564-2 0  9993
2 48046  87.8984 354.7242 0001888  86.1176 274.0169 13.13468912230854
ONEWEB-0150             
1 48047U 21025F   25359.49418458 -.00000203  00000+0 -59088-3 0  9999
2 48047  87.8984 354.7248 0001764  95.1228 265.0102 13.13470629230745
ONEWEB-0107             
1 48048U 21025G   25359.41969321 -.00000126  00000+0 -37979-3 0  9991
2 48048  87.8985 354.7361 0001505  90.8357 269.2944 13.13469447230714
ONEWEB-0101             
1 48049U 21025H   25359.53480580  .00000216  00000+0  55748-3 0  9992
2 48049  87.8978 354.7454 0001623  84.4132 275.7182 13.13467760230702
ONEWEB-0113             
1 48050U 21025J   25359.46995554 -.00000100  00000+0 -30662-3 0  9990
2 48050  87.8983 354.6856 0001962  91.5192 268.6162 13.13985645230791
ONEWEB-0112             
1 48051U 21025K   25359.50094176 -.00000039  00000+0 -14041-3 0  9990
2 48051  87.8985 354.7171 0001760  91.3848 268.7483 13.13468877230797
ONEWEB-0156             
1 48052U 21025L   25359.35706686  .00000244  00000+0  63300-3 0  9998
2 48052  87.8986 354.7570 0001627  90.0665 270.0651 13.13470162230756
ONEWEB-0161             
1 48053U 21025M   25359.02695596 -.00000266  00000+0 -76231-3 0  9993
2 48053  87.8978 354.8383 0001604  89.0713 271.0600 13.13468808230645
